ONEWEB-0694             
1 56722U 23068N   24010.58335648 -.01093511  00000+0 -86111+0 0  9997
2 56722  87.3038  47.0213 0015537 122.5869  89.4073 13.95303972  5507
ONEWEB-0696             
1 56723U 23068P   24010.21382851 -.00000023  00000+0 -94593-4 0  9999
2 56723  87.8986  76.1869 0001988 114.1104 246.0235 13.15549329 32487
ONEWEB-0703             
1 56724U 23068Q   24010.22410315  .00000071  00000+0  15413-3 0  9992
2 56724  87.8985  76.2072 0002465 134.9975 225.1356 13.15549407 32378
ONEWEB-0721             
1 56725U 23068R   24010.10661768  .00001505  00000+0  17760-3 0  9990
2 56725  86.6751  42.5276 0013298 110.8201 249.4448 14.83956470 34911
